NORAD_CAT_ID,OBJECT_NAME,OBJECT_TYPE,EPOCH,MEAN_MOTION,ECCENTRICITY,INCLINATION,RA_OF_ASC_NODE,ARG_OF_PERICENTER,MEAN_ANOMALY,BSTAR,MEAN_MOTION_DOT,MEAN_MOTION_DDOT,TLE_LINE0,TLE_LINE1,TLE_LINE2,SEMIMAJOR_AXIS,PERIOD,APOGEE,PERIGEE,DECAYED
52999.0,STARLINK-4217,PAYLOAD,2023-11-23 01:39:17,15.08848587,0.0001738,53.2166,254.3441,101.2396,258.8792,0.00011711,1.577e-05,0.0,0 STARLINK-4217,1 52999U 22076P   23327.06895553  .00001577  00000-0  11711-3 0  9993,2 52999  53.2166 254.3441 0001738 101.2396 258.8792 15.08848587 76393,6917.854,95.437,540.921,538.517,0.0
52999.0,STARLINK-4217,PAYLOAD,2023-11-23 19:08:33,15.08831533,0.0001763,53.2168,251.0729,119.6162,240.5006,6.0782e-05,6.79e-06,0.0,0 STARLINK-4217,1 52999U 22076P   23327.79760619  .00000679  00000-0  60782-4 0  9992,2 52999  53.2168 251.0729 0001763 119.6162 240.5006 15.08831533 76973,6917.906,95.438,540.991,538.552,0.0
52999.0,STARLINK-4217,PAYLOAD,2023-11-23 22:19:19,15.08831868,0.0001558,53.2163,250.4797,108.4838,251.6323,2.6942e-05,1.41e-06,0.0,0 STARLINK-4217,1 52999U 22076P   23327.93008635  .00000141  00000-0  26942-4 0  9995,2 52999  53.2163 250.4797 0001558 108.4838 251.6323 15.08831868 76521,6917.905,95.438,540.848,538.692,0.0
52999.0,STARLINK-4217,PAYLOAD,2023-11-24 01:30:05,15.08833238,0.0001701,53.2168,249.8854,112.6717,247.4455,7.8063e-05,9.54e-06,0.0,0 STARLINK-4217,1 52999U 22076P   23328.06256656  .00000954  00000-0  78063-4 0  9991,2 52999  53.2168 249.8854 0001701 112.6717 247.4455 15.08833238 76549,6917.901,95.438,540.943,538.589,0.0
52999.0,STARLINK-4217,PAYLOAD,2023-11-24 18:59:19,15.08848542,0.0001624,53.2166,246.6137,101.3953,258.7222,-0.00016352,-2.89e-05,0.0,0 STARLINK-4217,1 52999U 22076P   23328.79120359 -.00002890  00000-0 -16352-3 0  9996,2 52999  53.2166 246.6137 0001624 101.3953 258.7222 15.08848542 77123,6917.854,95.437,540.843,538.596,0.0
52999.0,STARLINK-4217,PAYLOAD,2023-11-24 22:10:06,15.08840936,0.000146,53.217,246.0209,106.3294,253.7859,0.00049985,7.676e-05,0.0,0 STARLINK-4217,1 52999U 22076P   23328.92368809  .00007676  00000-0  49985-3 0  9998,2 52999  53.2170 246.0209 0001460 106.3294 253.7859 15.08840936 76672,6917.878,95.437,540.753,538.733,0.0
52999.0,STARLINK-4217,PAYLOAD,2023-11-25 04:31:38,15.08861289,0.0001579,53.216,244.8286,102.3522,257.7647,0.00036475,5.525e-05,0.0,0 STARLINK-4217,1 52999U 22076P   23329.18863880  .00005525  00000-0  36475-3 0  9997,2 52999  53.2160 244.8286 0001579 102.3522 257.7647 15.08861289 76711,6917.815,95.436,540.773,538.588,0.0
52999.0,STARLINK-4217,PAYLOAD,2023-11-25 22:00:52,15.08856187,0.000157,53.2159,241.5548,99.2629,260.8541,0.00035319,5.34e-05,0.0,0 STARLINK-4217,1 52999U 22076P   23329.91727892  .00005340  00000-0  35319-3 0  9991,2 52999  53.2159 241.5548 0001570  99.2629 260.8541 15.08856187 76828,6917.831,95.437,540.782,538.61,0.0
52999.0,STARLINK-4217,PAYLOAD,2023-11-26 01:11:38,15.08873514,0.0001487,53.2163,240.9632,102.3447,257.7712,0.00069753,0.00010841,0.0,0 STARLINK-4217,1 52999U 22076P   23330.04975185  .00010841  00000-0  69753-3 0  9998,2 52999  53.2163 240.9632 0001487 102.3447 257.7712 15.08873514 77314,6917.778,95.435,540.672,538.614,0.0
52999.0,STARLINK-4217,PAYLOAD,2023-11-26 18:40:54,15.08826202,0.0001554,53.216,237.689,117.0998,243.0153,-0.00039171,-6.514e-05,0.0,0 STARLINK-4217,1 52999U 22076P   23330.77840612 -.00006514  00000-0 -39171-3 0  9999,2 52999  53.2160 237.6890 0001554 117.0998 243.0153 15.08826202 77420,6917.923,95.438,540.863,538.713,0.0
52999.0,STARLINK-4217,PAYLOAD,2023-11-26 21:51:41,15.08802007,0.0001788,53.216,237.0946,111.7891,248.3291,-0.00082802,-0.00013428,0.0,0 STARLINK-4217,1 52999U 22076P   23330.91089618 -.00013428  00000-0 -82802-3 0  9997,2 52999  53.2160 237.0946 0001788 111.7891 248.3291 15.08802007 76975,6917.997,95.44,541.098,538.625,0.0
52999.0,STARLINK-4217,PAYLOAD,2023-11-27 04:13:14,15.08802241,0.0001778,53.2169,235.9081,117.7119,242.4054,-0.00056456,-9.253e-05,0.0,0 STARLINK-4217,1 52999U 22076P   23331.17586670 -.00009253  00000-0 -56456-3 0  9993,2 52999  53.2169 235.9081 0001778 117.7119 242.4054 15.08802241 77488,6917.996,95.44,541.091,538.631,0.0
52999.0,STARLINK-4217,PAYLOAD,2023-11-27 21:42:28,15.08842011,0.0001434,53.2178,232.6446,91.8984,268.2172,-3.4209e-05,-8.32e-06,0.0,0 STARLINK-4217,1 52999U 22076P   23331.90449161 -.00000832  00000-0 -34209-4 0  9994,2 52999  53.2178 232.6446 0001434  91.8984 268.2172 15.08842011 77125,6917.874,95.437,540.731,538.747,0.0
52999.0,STARLINK-4217,PAYLOAD,2023-11-28 02:28:36,15.08864428,0.0001782,53.2166,231.7475,114.6103,245.5075,0.00033877,5.111e-05,0.0,0 STARLINK-4217,1 52999U 22076P   23332.10319911  .00005111  00000-0  33877-3 0  9998,2 52999  53.2166 231.7475 0001782 114.6103 245.5075 15.08864428 77628,6917.806,95.436,540.903,538.438,0.0
52999.0,STARLINK-4217,PAYLOAD,2023-11-28 16:47:05,15.0883732,0.0002298,53.217,229.0691,128.2862,231.8337,0.00056117,8.654e-05,0.0,0 STARLINK-4217,1 52999U 22076P   23332.69937392  .00008654  00000-0  56117-3 0  9998,2 52999  53.2170 229.0691 0002298 128.2862 231.8337 15.08837320 77719,6917.889,95.438,541.343,538.164,0.0
52999.0,STARLINK-4217,PAYLOAD,2023-11-28 21:33:15,15.08840063,0.000239,53.2167,228.175,133.2538,226.8654,0.00049199,7.551e-05,0.0,0 STARLINK-4217,1 52999U 22076P   23332.89809175  .00007551  00000-0  49199-3 0  9994,2 52999  53.2167 228.1750 0002390 133.2538 226.8654 15.08840063 77275,6917.88,95.438,541.399,538.092,0.0
52999.0,STARLINK-4217,PAYLOAD,2023-11-29 02:19:24,15.08842692,0.0001637,53.2164,227.2856,99.8305,260.2872,0.00047823,7.332e-05,0.0,0 STARLINK-4217,1 52999U 22076P   23333.09681550  .00007332  00000-0  47823-3 0  9991,2 52999  53.2164 227.2856 0001637  99.8305 260.2872 15.08842692 77309,6917.872,95.437,540.87,538.605,0.0
52999.0,STARLINK-4217,PAYLOAD,2023-11-30 00:34:48,15.08847591,0.0001597,53.2165,223.1265,91.8645,268.253,-8.8619e-05,-1.698e-05,0.0,0 STARLINK-4217,1 52999U 22076P   23334.02416983 -.00001698  00000-0 -88619-4 0  9991,2 52999  53.2165 223.1265 0001597  91.8645 268.2530 15.08847591 77912,6917.857,95.437,540.827,538.617,0.0
52999.0,STARLINK-4217,PAYLOAD,2023-11-30 22:50:12,15.08836036,0.000151,53.2166,218.958,104.2292,255.8868,-5.5418e-05,-1.17e-05,0.0,0 STARLINK-4217,1 52999U 22076P   23334.95153537 -.00001170  00000-0 -55418-4 0  9992,2 52999  53.2166 218.9580 0001510 104.2292 255.8868 15.08836036 78051,6917.893,95.438,540.802,538.713,0.0
52999.0,STARLINK-4217,PAYLOAD,2023-12-01 22:40:58,15.08868528,0.0001418,53.216,214.5055,97.1676,262.9478,0.00047668,7.312e-05,0.0,0 STARLINK-4217,1 52999U 22076P   23335.94512227  .00007312  00000-0  47668-3 0  9996,2 52999  53.2160 214.5055 0001418  97.1676 262.9478 15.08868528 77738,6917.793,95.436,540.639,538.677,0.0
52999.0,STARLINK-4217,PAYLOAD,2023-12-02 01:51:44,15.08874943,0.0001539,53.2162,213.9019,105.2699,254.8463,0.00055123,8.504e-05,0.0,0 STARLINK-4217,1 52999U 22076P   23336.07759658  .00008504  00000-0  55123-3 0  9991,2 52999  53.2162 213.9019 0001539 105.2699 254.8463 15.08874943 77757,6917.774,95.435,540.703,538.574,0.0
52999.0,STARLINK-4217,PAYLOAD,2023-12-02 19:21:00,15.08840182,0.0001323,53.2164,210.6332,94.6935,265.4209,-4.8223e-05,-1.055e-05,0.0,0 STARLINK-4217,1 52999U 22076P   23336.80625238 -.00001055  00000-0 -48223-4 0  9998,2 52999  53.2164 210.6332 0001323  94.6935 265.4209 15.08840182 78335,6917.88,95.438,540.66,538.83,0.0
52999.0,STARLINK-4217,PAYLOAD,2023-12-02 22:31:46,15.08838946,0.0001303,53.216,210.0409,74.5871,285.5265,-6.0403e-05,-1.249e-05,0.0,0 STARLINK-4217,1 52999U 22076P   23336.93873346 -.00001249  00000-0 -60403-4 0  9996,2 52999  53.2160 210.0409 0001303  74.5871 285.5265 15.08838946 77883,6917.884,95.438,540.65,538.847,0.0
52999.0,STARLINK-4217,PAYLOAD,2023-12-03 01:42:32,15.08839241,0.0001263,53.2157,209.4443,73.7903,286.3228,-5.0548e-05,-1.092e-05,0.0,0 STARLINK-4217,1 52999U 22076P   23337.07121293 -.00001092  00000-0 -50548-4 0  9994,2 52999  53.2157 209.4443 0001263  73.7903 286.3228 15.08839241 77901,6917.883,95.438,540.621,538.874,0.0
52999.0,STARLINK-4217,PAYLOAD,2023-12-03 19:11:47,15.08830317,0.0001309,53.2156,206.1696,91.5567,268.5575,-0.00034287,-5.739e-05,0.0,0 STARLINK-4217,1 52999U 22076P   23337.79985907 -.00005739  00000-0 -34287-3 0  9996,2 52999  53.2156 206.1696 0001309  91.5567 268.5575 15.08830317 78485,6917.91,95.438,540.681,538.869,0.0
52999.0,STARLINK-4217,PAYLOAD,2023-12-03 22:22:34,15.08831258,0.0001359,53.2158,205.5746,91.6916,268.4232,-0.00029281,-4.944e-05,0.0,0 STARLINK-4217,1 52999U 22076P   23337.93233932 -.00004944  00000-0 -29281-3 0  9991,2 52999  53.2158 205.5746 0001359  91.6916 268.4232 15.08831258 78035,6917.907,95.438,540.712,538.832,0.0
52999.0,STARLINK-4217,PAYLOAD,2023-12-04 15:51:49,15.0883332,0.0001297,53.215,202.3021,80.604,279.5099,0.00016128,2.279e-05,0.0,0 STARLINK-4217,1 52999U 22076P   23338.66098572  .00002279  00000-0  16128-3 0  9994,2 52999  53.2150 202.3021 0001297  80.6040 279.5099 15.08833320 78143,6917.901,95.438,540.663,538.869,0.0
52999.0,STARLINK-4217,PAYLOAD,2023-12-04 23:48:45,15.08822819,0.0001507,53.2151,200.8158,93.0771,267.0393,0.00083013,0.00012942,0.0,0 STARLINK-4217,1 52999U 22076P   23338.99219289  .00012942  00000-0  83013-3 0  9995,2 52999  53.2151 200.8158 0001507  93.0771 267.0393 15.08822819 78668,6917.933,95.439,540.84,538.755,0.0
52999.0,STARLINK-4217,PAYLOAD,2023-12-06 01:14:54,15.08851257,0.0001261,53.215,196.0618,88.7882,271.3254,0.00024884,3.676e-05,0.0,0 STARLINK-4217,1 52999U 22076P   23340.05201591  .00003676  00000-0  24884-3 0  9997,2 52999  53.2150 196.0618 0001261  88.7882 271.3254 15.08851257 78825,6917.846,95.437,540.583,538.839,0.0
52999.0,STARLINK-4217,PAYLOAD,2023-12-06 21:54:55,15.08832631,0.0001439,53.2151,192.1931,92.026,268.0897,-0.00016371,-2.892e-05,0.0,0 STARLINK-4217,1 52999U 22076P   23340.91314556 -.00002892  00000-0 -16371-3 0  9991,2 52999  53.2151 192.1931 0001439  92.0260 268.0897 15.08832631 78951,6917.903,95.438,540.763,538.772,0.0
